[{"OBJECT_NAME":"STARLINK-34987","OBJECT_ID":"2025-179W","EPOCH":"2026-03-09T16:10:18.932736","MEAN_MOTION":15.05651677,"ECCENTRICITY":2.791e-5,"INCLINATION":97.6034,"RA_OF_ASC_NODE":112.9118,"ARG_OF_PERICENTER":115.2852,"MEAN_ANOMALY":244.8404,"EPHEMERIS_TYPE":0,"CLASSIFICATION_TYPE":"U","NORAD_CAT_ID":65255,"ELEMENT_SET_NO":999,"REV_AT_EPOCH":3180,"BSTAR":0.00024609509,"MEAN_MOTION_DOT":3.492e-5,"MEAN_MOTION_DDOT":0},{"OBJECT_NAME":"CZ-4B DEB","OBJECT_ID":"2008-053M","EPOCH":"2026-03-05T07:18:48.921696","MEAN_MOTION":15.08195439,"ECCENTRICITY":0.0017401,"INCLINATION":97.8281,"RA_OF_ASC_NODE":90.6528,"ARG_OF_PERICENTER":258.7901,"MEAN_ANOMALY":101.1371,"EPHEMERIS_TYPE":0,"CLASSIFICATION_TYPE":"U","NORAD_CAT_ID":44593,"ELEMENT_SET_NO":999,"REV_AT_EPOCH":67199,"BSTAR":0.00019653,"MEAN_MOTION_DOT":2.982e-5,"MEAN_MOTION_DDOT":0}]
